ONEWEB-0665             
1 55825U 23029AF  24212.34759421  .00000249  00000+0  63592-3 0  9999
2 55825  87.8931  66.3491 0001747  71.6603 288.4717 13.14504527 69176
ONEWEB-0666             
1 55826U 23029AG  24212.52559805  .00000040  00000+0  65425-4 0  9991
2 55826  87.9185  51.0768 0002086  96.3140 263.8231 13.20769802 70518
ONEWEB-0667             
1 55827U 23029AH  24212.51928887  .00000074  00000+0  15109-3 0  9991
2 55827  87.9184  51.0114 0001915  77.2271 282.9076 13.20771263 70508
ONEWEB-0669             
1 55828U 23029AJ  24212.51456006  .00000113  00000+0  24661-3 0  9998
2 55828  87.9183  51.0495 0002622  90.1690 269.9744 13.20771380 70502
ONEWEB-0670             
1 55829U 23029AK  24212.32541840 -.00000199  00000+0 -57138-3 0  9990
2 55829  87.8936  66.3604 0002067  70.6864 289.4489 13.14502336 69190
ONEWEB-0671             
1 55830U 23029AL  24212.61825523 -.00000018  00000+0 -76753-4 0  9992
2 55830  87.9120  81.5869 0001910  72.4110 287.7231 13.19724285 68346
ONEWEB-0672             
1 55831U 23029AM  24212.50983005 -.00001599  00000+0 -39670-2 0  9991
2 55831  87.9221  51.0386 0001721  86.1764 273.9566 13.20752535 70502
ONEWEB-0673             
1 55832U 23029AN  24212.36710702  .00000026  00000+0  33134-4 0  9991
2 55832  87.9121  81.6037 0001840  72.2291 287.9043 13.19727217 68315
